[
  {
    "OBJECT_NAME": "STARLINK-3608",
    "OBJECT_ID": "22017J",
    "EPOCH": "2025-11-11T06:52:45.486912",
    "MEAN_MOTION": 15.08844133,
    "ECCENTRICITY": 0.0001428,
    "INCLINATION": 53.2161,
    "RA_OF_ASC_NODE": 150.6522,
    "ARG_OF_PERICENTER": 85.1527,
    "MEAN_ANOMALY": 274.9628,
    "EPHEMERIS_TYPE": 0,
    "CLASSIFICATION_TYPE": "U",
    "NORAD_CAT_ID": 51776,
    "ELEMENT_SET_NO": 999,
    "REV_AT_EPOCH": 20469,
    "BSTAR": 6.0956000000000004e-05,
    "MEAN_MOTION_DOT": 6.82e-06,
    "MEAN_MOTION_DDOT": 0.0,
    "TLE_LINE1": "1 51776U 22017J   25315.28663758  .00000682  00000+0  60956-4 0  9994",
    "TLE_LINE2": "2 51776  53.2161 150.6522 0001428  85.1527 274.9628 15.08844133204696",
    "COMMENT": "Grouped by shell and plane from TLE"
  },
  {
    "OBJECT_NAME": "STARLINK-3625",
    "OBJECT_ID": "22017K",
    "EPOCH": "2025-11-10T19:51:43.949664",
    "MEAN_MOTION": 15.08842097,
    "ECCENTRICITY": 0.0001906,
    "INCLINATION": 53.211,
    "RA_OF_ASC_NODE": 152.685,
    "ARG_OF_PERICENTER": 88.4236,
    "MEAN_ANOMALY": 271.6975,
    "EPHEMERIS_TYPE": 0,
    "CLASSIFICATION_TYPE": "U",
    "NORAD_CAT_ID": 51777,
    "ELEMENT_SET_NO": 999,
    "REV_AT_EPOCH": 20465,
    "BSTAR": 0.00010298,
    "MEAN_MOTION_DOT": 1.351e-05,
    "MEAN_MOTION_DDOT": 0.0,
    "TLE_LINE1": "1 51777U 22017K   25314.82759201  .00001351  00000+0  10298-3 0  9990",
    "TLE_LINE2": "2 51777  53.2110 152.6850 0001906  88.4236 271.6975 15.08842097204653",
    "COMMENT": "Grouped by shell and plane from TLE"
  },
  {
    "OBJECT_NAME": "STARLINK-3611",
    "OBJECT_ID": "22017M",
    "EPOCH": "2025-11-11T06:54:08.476704",
    "MEAN_MOTION": 15.08844208,
    "ECCENTRICITY": 0.0001211,
    "INCLINATION": 53.2159,
    "RA_OF_ASC_NODE": 150.6984,
    "ARG_OF_PERICENTER": 70.6679,
    "MEAN_ANOMALY": 289.4444,
    "EPHEMERIS_TYPE": 0,
    "CLASSIFICATION_TYPE": "U",
    "NORAD_CAT_ID": 51779,
    "ELEMENT_SET_NO": 999,
    "REV_AT_EPOCH": 20469,
    "BSTAR": 8.2564e-05,
    "MEAN_MOTION_DOT": 1.027e-05,
    "MEAN_MOTION_DDOT": 0.0,
    "TLE_LINE1": "1 51779U 22017M   25315.28759811  .00001027  00000+0  82564-4 0  9996",
    "TLE_LINE2": "2 51779  53.2159 150.6984 0001211  70.6679 289.4444 15.08844208204695",
    "COMMENT": "Grouped by shell and plane from TLE"
  },
  {
    "OBJECT_NAME": "STARLINK-3617",
    "OBJECT_ID": "22017N",
    "EPOCH": "2025-11-11T06:31:33.834432",
    "MEAN_MOTION": 15.08844689,
    "ECCENTRICITY": 0.0001676,
    "INCLINATION": 53.215,
    "RA_OF_ASC_NODE": 150.7084,
    "ARG_OF_PERICENTER": 90.4974,
    "MEAN_ANOMALY": 269.621,
    "EPHEMERIS_TYPE": 0,
    "CLASSIFICATION_TYPE": "U",
    "NORAD_CAT_ID": 51780,
    "ELEMENT_SET_NO": 999,
    "REV_AT_EPOCH": 20454,
    "BSTAR": 0.00015401000000000002,
    "MEAN_MOTION_DOT": 2.164e-05,
    "MEAN_MOTION_DDOT": 0.0,
    "TLE_LINE1": "1 51780U 22017N   25315.27191938  .00002164  00000+0  15401-3 0  9995",
    "TLE_LINE2": "2 51780  53.2150 150.7084 0001676  90.4974 269.6210 15.08844689204541",
    "COMMENT": "Grouped by shell and plane from TLE"
  },
  {
    "OBJECT_NAME": "STARLINK-3580",
    "OBJECT_ID": "22017P",
    "EPOCH": "2025-11-10T19:29:09.471552",
    "MEAN_MOTION": 15.08842867,
    "ECCENTRICITY": 0.0001403,
    "INCLINATION": 53.2171,
    "RA_OF_ASC_NODE": 152.7465,
    "ARG_OF_PERICENTER": 91.2188,
    "MEAN_ANOMALY": 268.8965,
    "EPHEMERIS_TYPE": 0,
    "CLASSIFICATION_TYPE": "U",
    "NORAD_CAT_ID": 51781,
    "ELEMENT_SET_NO": 999,
    "REV_AT_EPOCH": 20447,
    "BSTAR": 0.00010333,
    "MEAN_MOTION_DOT": 1.357e-05,
    "MEAN_MOTION_DDOT": 0.0,
    "TLE_LINE1": "1 51781U 22017P   25314.81191518  .00001357  00000+0  10333-3 0  9991",
    "TLE_LINE2": "2 51781  53.2171 152.7465 0001403  91.2188 268.8965 15.08842867204470",
    "COMMENT": "Grouped by shell and plane from TLE"
  },
  {
    "OBJECT_NAME": "STARLINK-3628",
    "OBJECT_ID": "22017R",
    "EPOCH": "2025-11-11T06:43:33.533472",
    "MEAN_MOTION": 15.08848035,
    "ECCENTRICITY": 0.0001245,
    "INCLINATION": 53.2149,
    "RA_OF_ASC_NODE": 150.7303,
    "ARG_OF_PERICENTER": 91.2884,
    "MEAN_ANOMALY": 268.8251,
    "EPHEMERIS_TYPE": 0,
    "CLASSIFICATION_TYPE": "U",
    "NORAD_CAT_ID": 51783,
    "ELEMENT_SET_NO": 999,
    "REV_AT_EPOCH": 20454,
    "BSTAR": 0.00011172000000000001,
    "MEAN_MOTION_DOT": 1.491e-05,
    "MEAN_MOTION_DDOT": 0.0,
    "TLE_LINE1": "1 51783U 22017R   25315.28024923  .00001491  00000+0  11172-3 0  9991",
    "TLE_LINE2": "2 51783  53.2149 150.7303 0001245  91.2884 268.8251 15.08848035204542",
    "COMMENT": "Grouped by shell and plane from TLE"
  },
  {
    "OBJECT_NAME": "STARLINK-3646",
    "OBJECT_ID": "22017T",
    "EPOCH": "2025-11-11T06:27:37.868256",
    "MEAN_MOTION": 15.08851647,
    "ECCENTRICITY": 0.0001066,
    "INCLINATION": 53.2128,
    "RA_OF_ASC_NODE": 150.7018,
    "ARG_OF_PERICENTER": 121.7714,
    "MEAN_ANOMALY": 238.3382,
    "EPHEMERIS_TYPE": 0,
    "CLASSIFICATION_TYPE": "U",
    "NORAD_CAT_ID": 51785,
    "ELEMENT_SET_NO": 999,
    "REV_AT_EPOCH": 20454,
    "BSTAR": 0.00027037000000000003,
    "MEAN_MOTION_DOT": 4.019e-05,
    "MEAN_MOTION_DDOT": 0.0,
    "TLE_LINE1": "1 51785U 22017T   25315.26918829  .00004019  00000+0  27037-3 0  9994",
    "TLE_LINE2": "2 51785  53.2128 150.7018 0001066 121.7714 238.3382 15.08851647204546",
    "COMMENT": "Grouped by shell and plane from TLE"
  },
  {
    "OBJECT_NAME": "STARLINK-3606",
    "OBJECT_ID": "22017AR",
    "EPOCH": "2025-11-11T06:26:16.187424",
    "MEAN_MOTION": 15.08839276,
    "ECCENTRICITY": 0.0001591,
    "INCLINATION": 53.2161,
    "RA_OF_ASC_NODE": 150.7357,
    "ARG_OF_PERICENTER": 89.2836,
    "MEAN_ANOMALY": 270.8339,
    "EPHEMERIS_TYPE": 0,
    "CLASSIFICATION_TYPE": "U",
    "NORAD_CAT_ID": 51807,
    "ELEMENT_SET_NO": 999,
    "REV_AT_EPOCH": 20623,
    "BSTAR": 6.7217e-05,
    "MEAN_MOTION_DOT": 7.82e-06,
    "MEAN_MOTION_DDOT": 0.0,
    "TLE_LINE1": "1 51807U 22017AR  25315.26824291  .00000782  00000+0  67217-4 0  9996",
    "TLE_LINE2": "2 51807  53.2161 150.7357 0001591  89.2836 270.8339 15.08839276206235",
    "COMMENT": "Grouped by shell and plane from TLE"
  },
  {
    "OBJECT_NAME": "STARLINK-3609",
    "OBJECT_ID": "22017AS",
    "EPOCH": "2025-11-10T23:43:34.674528",
    "MEAN_MOTION": 15.08816809,
    "ECCENTRICITY": 0.000236,
    "INCLINATION": 53.2165,
    "RA_OF_ASC_NODE": 151.9885,
    "ARG_OF_PERICENTER": 87.3759,
    "MEAN_ANOMALY": 272.7503,
    "EPHEMERIS_TYPE": 0,
    "CLASSIFICATION_TYPE": "U",
    "NORAD_CAT_ID": 51808,
    "ELEMENT_SET_NO": 999,
    "REV_AT_EPOCH": 20604,
    "BSTAR": 0.0,
    "MEAN_MOTION_DOT": -3.241e-05,
    "MEAN_MOTION_DDOT": 0.0,
    "TLE_LINE1": "1 51808U 22017AS  25314.98859577 -.00003241  00000+0 -18574-3 0  9996",
    "TLE_LINE2": "2 51808  53.2165 151.9885 0002360  87.3759 272.7503 15.08816809206047",
    "COMMENT": "Grouped by shell and plane from TLE"
  },
  {
    "OBJECT_NAME": "STARLINK-3607",
    "OBJECT_ID": "22017AT",
    "EPOCH": "2025-11-10T23:54:07.512192",
    "MEAN_MOTION": 15.08827107,
    "ECCENTRICITY": 0.0002257,
    "INCLINATION": 53.2176,
    "RA_OF_ASC_NODE": 151.9168,
    "ARG_OF_PERICENTER": 91.9964,
    "MEAN_ANOMALY": 268.1286,
    "EPHEMERIS_TYPE": 0,
    "CLASSIFICATION_TYPE": "U",
    "NORAD_CAT_ID": 51809,
    "ELEMENT_SET_NO": 999,
    "REV_AT_EPOCH": 20614,
    "BSTAR": 0.0,
    "MEAN_MOTION_DOT": -1.567e-05,
    "MEAN_MOTION_DDOT": 0.0,
    "TLE_LINE1": "1 51809U 22017AT  25314.99592028 -.00001567  00000+0 -80371-4 0  9997",
    "TLE_LINE2": "2 51809  53.2176 151.9168 0002257  91.9964 268.1286 15.08827107206149",
    "COMMENT": "Grouped by shell and plane from TLE"
  },
  {
    "OBJECT_NAME": "STARLINK-3569",
    "OBJECT_ID": "22017AV",
    "EPOCH": "2025-11-11T06:10:22.859328",
    "MEAN_MOTION": 15.0883077,
    "ECCENTRICITY": 0.0001542,
    "INCLINATION": 53.213,
    "RA_OF_ASC_NODE": 150.7856,
    "ARG_OF_PERICENTER": 97.798,
    "MEAN_ANOMALY": 262.3187,
    "EPHEMERIS_TYPE": 0,
    "CLASSIFICATION_TYPE": "U",
    "NORAD_CAT_ID": 51811,
    "ELEMENT_SET_NO": 999,
    "REV_AT_EPOCH": 20608,
    "BSTAR": 0.0,
    "MEAN_MOTION_DOT": -2.792e-05,
    "MEAN_MOTION_DDOT": 0.0,
    "TLE_LINE1": "1 51811U 22017AV  25315.25720902 -.00002792  00000+0 -15742-3 0  9994",
    "TLE_LINE2": "2 51811  53.2130 150.7856 0001542  97.7980 262.3187 15.08830770206080",
    "COMMENT": "Grouped by shell and plane from TLE"
  },
  {
    "OBJECT_NAME": "STARLINK-5195",
    "OBJECT_ID": "22136A",
    "EPOCH": "2025-11-11T00:12:03.271680",
    "MEAN_MOTION": 15.08839085,
    "ECCENTRICITY": 0.0001493,
    "INCLINATION": 53.2151,
    "RA_OF_ASC_NODE": 157.1472,
    "ARG_OF_PERICENTER": 90.8856,
    "MEAN_ANOMALY": 269.2307,
    "EPHEMERIS_TYPE": 0,
    "CLASSIFICATION_TYPE": "U",
    "NORAD_CAT_ID": 54051,
    "ELEMENT_SET_NO": 999,
    "REV_AT_EPOCH": 16892,
    "BSTAR": 0.00010041,
    "MEAN_MOTION_DOT": 1.31e-05,
    "MEAN_MOTION_DDOT": 0.0,
    "TLE_LINE1": "1 54051U 22136A   25315.00837120  .00001310  00000+0  10041-3 0  9999",
    "TLE_LINE2": "2 54051  53.2151 157.1472 0001493  90.8856 269.2307 15.08839085168926",
    "COMMENT": "Grouped by shell and plane from TLE"
  },
  {
    "OBJECT_NAME": "STARLINK-5176",
    "OBJECT_ID": "22136C",
    "EPOCH": "2025-11-11T06:28:17.201856",
    "MEAN_MOTION": 15.08851161,
    "ECCENTRICITY": 0.0001576,
    "INCLINATION": 53.2161,
    "RA_OF_ASC_NODE": 155.9374,
    "ARG_OF_PERICENTER": 94.5579,
    "MEAN_ANOMALY": 265.5593,
    "EPHEMERIS_TYPE": 0,
    "CLASSIFICATION_TYPE": "U",
    "NORAD_CAT_ID": 54053,
    "ELEMENT_SET_NO": 999,
    "REV_AT_EPOCH": 16896,
    "BSTAR": 0.0,
    "MEAN_MOTION_DOT": -3.613e-05,
    "MEAN_MOTION_DDOT": 0.0,
    "TLE_LINE1": "1 54053U 22136C   25315.26964354 -.00003613  00000+0 -20896-3 0  9998",
    "TLE_LINE2": "2 54053  53.2161 155.9374 0001576  94.5579 265.5593 15.08851161168960",
    "COMMENT": "Grouped by shell and plane from TLE"
  }
]